H-2A R/B                
1 38341U 12025E   25323.60539645  .00003943  00000+0  36710-3 0  9990
2 38341  98.4556 277.0602 0044430 314.1133  45.6433 14.94221223731773
SHIJIAN-16 (SJ-16)      
1 39358U 13057A   25323.60170574  .00002498  00000+0  24923-3 0  9994
2 39358  74.9750  33.4306 0016707  15.3172 344.8518 14.91888204655083
SL-4 R/B                
1 39679U 14021B   25323.58773423  .00013217  00000+0  32189-3 0  9995
2 39679  51.6056 153.0411 0103601  62.9493 298.2018 15.35861717639336
ALOS-2                  
1 39766U 14029A   25323.61260567  .00002371  00000+0  32426-3 0  9997
2 39766  97.9239  58.7876 0001440 100.4205 259.7169 14.79469377620592
YAOGAN-29               
1 41038U 15069A   25323.60713125  .00000645  00000+0  86324-4 0  9998
2 41038  98.0242 346.7021 0001760  35.9623 324.1708 14.82846538539560
ASTRO-H (HITOMI)        
1 41337U 16012A   25323.34411683  .00003322  00000+0  19831-3 0  9997
2 41337  31.0013 348.1709 0009826 301.6308  58.3371 15.09149042535540
HXMT (HUIYAN)           
1 42758U 17034A   25323.53423513  .00009350  00000+0  48361-3 0  9993
2 42758  43.0151 268.3708 0034154 258.9607 100.7399 15.15928830465815
CZ-2C R/B               
1 43521U 18054D   25323.48247571  .00095068  00000+0  77415-3 0  9990
2 43521  35.1359 337.9826 0022705 272.6371  87.1761 15.69022195411393
SAOCOM 1A               
1 43641U 18076A   25323.58325603  .00000690  00000+0  93242-4 0  9995
2 43641  97.8852 148.3418 0001556  92.1664 267.9728 14.82141271385056
H-2A R/B                
1 43682U 18084L   25323.44772123  .00018164  00000+0  50888-3 0  9990
2 43682  98.8787 152.7210 0028983  45.5722 314.7882 15.36277558388826
SAOCOM 1B               
1 46265U 20059A   25323.61455034  .00000224  00000+0  34740-4 0  9991
2 46265  97.8849 147.4744 0001334  89.3845 270.7521 14.82149289282441
CSS (TIANHE)            
1 48274U 21035A   25323.58512989  .00019179  00000+0  24002-3 0  9995
2 48274  41.4651 157.1900 0007339 196.7661 163.2936 15.59311572260411
