CCSDS_OMM_VERS = 2.0
CREATION_DATE  = 
ORIGINATOR     = 

OBJECT_NAME    = H-2A R/B
OBJECT_ID      = 2012-025E
CENTER_NAME    = EARTH
REF_FRAME      = TEME
TIME_SYSTEM    = UTC
MEAN_ELEMENT_THEORY = SGP/SGP4

EPOCH          = 2025-11-19T14:31:46.253280
MEAN_MOTION    = 14.94221223
ECCENTRICITY   = .004443
INCLINATION    = 98.4556
RA_OF_ASC_NODE = 277.0602
ARG_OF_PERICENTER = 314.1133
MEAN_ANOMALY   = 45.6433

EPHEMERIS_TYPE = 0
CLASSIFICATION_TYPE = U
NORAD_CAT_ID   = 38341
ELEMENT_SET_NO = 999
REV_AT_EPOCH   = 73177
BSTAR          = .36709718E-3
MEAN_MOTION_DOT = .3943E-4
MEAN_MOTION_DDOT = 0

CCSDS_OMM_VERS = 2.0
CREATION_DATE  = 
ORIGINATOR     = 

OBJECT_NAME    = SHIJIAN-16 (SJ-16)
OBJECT_ID      = 2013-057A
CENTER_NAME    = EARTH
REF_FRAME      = TEME
TIME_SYSTEM    = UTC
MEAN_ELEMENT_THEORY = SGP/SGP4

EPOCH          = 2025-11-19T14:26:27.375936
MEAN_MOTION    = 14.91888204
ECCENTRICITY   = .00167074
INCLINATION    = 74.9750
RA_OF_ASC_NODE = 33.4306
ARG_OF_PERICENTER = 15.3172
MEAN_ANOMALY   = 344.8518

EPHEMERIS_TYPE = 0
CLASSIFICATION_TYPE = U
NORAD_CAT_ID   = 39358
ELEMENT_SET_NO = 999
REV_AT_EPOCH   = 65508
BSTAR          = .24922712E-3
MEAN_MOTION_DOT = .2498E-4
MEAN_MOTION_DDOT = 0

CCSDS_OMM_VERS = 2.0
CREATION_DATE  = 
ORIGINATOR     = 

OBJECT_NAME    = SL-4 R/B
OBJECT_ID      = 2014-021B
CENTER_NAME    = EARTH
REF_FRAME      = TEME
TIME_SYSTEM    = UTC
MEAN_ELEMENT_THEORY = SGP/SGP4

EPOCH          = 2025-11-19T14:06:20.237472
MEAN_MOTION    = 15.35861717
ECCENTRICITY   = .01036014
INCLINATION    = 51.6056
RA_OF_ASC_NODE = 153.0411
ARG_OF_PERICENTER = 62.9493
MEAN_ANOMALY   = 298.2018

EPHEMERIS_TYPE = 0
CLASSIFICATION_TYPE = U
NORAD_CAT_ID   = 39679
ELEMENT_SET_NO = 999
REV_AT_EPOCH   = 63933
BSTAR          = .32188804E-3
MEAN_MOTION_DOT = .13217E-3
MEAN_MOTION_DDOT = 0

CCSDS_OMM_VERS = 2.0
CREATION_DATE  = 
ORIGINATOR     = 

OBJECT_NAME    = ALOS-2
OBJECT_ID      = 2014-029A
CENTER_NAME    = EARTH
REF_FRAME      = TEME
TIME_SYSTEM    = UTC
MEAN_ELEMENT_THEORY = SGP/SGP4

EPOCH          = 2025-11-19T14:42:09.129888
MEAN_MOTION    = 14.79469377
ECCENTRICITY   = .00014404
INCLINATION    = 97.9239
RA_OF_ASC_NODE = 58.7876
ARG_OF_PERICENTER = 100.4205
MEAN_ANOMALY   = 259.7169

EPHEMERIS_TYPE = 0
CLASSIFICATION_TYPE = U
NORAD_CAT_ID   = 39766
ELEMENT_SET_NO = 999
REV_AT_EPOCH   = 62059
BSTAR          = .32426111E-3
MEAN_MOTION_DOT = .2371E-4
MEAN_MOTION_DDOT = 0

CCSDS_OMM_VERS = 2.0
CREATION_DATE  = 
ORIGINATOR     = 

OBJECT_NAME    = YAOGAN-29
OBJECT_ID      = 2015-069A
CENTER_NAME    = EARTH
REF_FRAME      = TEME
TIME_SYSTEM    = UTC
MEAN_ELEMENT_THEORY = SGP/SGP4

EPOCH          = 2025-11-19T14:34:16.140000
MEAN_MOTION    = 14.82846538
ECCENTRICITY   = .000176
INCLINATION    = 98.0242
RA_OF_ASC_NODE = 346.7021
ARG_OF_PERICENTER = 35.9623
MEAN_ANOMALY   = 324.1708

EPHEMERIS_TYPE = 0
CLASSIFICATION_TYPE = U
NORAD_CAT_ID   = 41038
ELEMENT_SET_NO = 999
REV_AT_EPOCH   = 53956
BSTAR          = .86323662E-4
MEAN_MOTION_DOT = .645E-5
MEAN_MOTION_DDOT = 0

CCSDS_OMM_VERS = 2.0
CREATION_DATE  = 
ORIGINATOR     = 

OBJECT_NAME    = ASTRO-H (HITOMI)
OBJECT_ID      = 2016-012A
CENTER_NAME    = EARTH
REF_FRAME      = TEME
TIME_SYSTEM    = UTC
MEAN_ELEMENT_THEORY = SGP/SGP4

EPOCH          = 2025-11-19T08:15:31.694112
MEAN_MOTION    = 15.09149042
ECCENTRICITY   = .00098264
INCLINATION    = 31.0013
RA_OF_ASC_NODE = 348.1709
ARG_OF_PERICENTER = 301.6308
MEAN_ANOMALY   = 58.3371

EPHEMERIS_TYPE = 0
CLASSIFICATION_TYPE = U
NORAD_CAT_ID   = 41337
ELEMENT_SET_NO = 999
REV_AT_EPOCH   = 53554
BSTAR          = .19831478E-3
MEAN_MOTION_DOT = .3322E-4
MEAN_MOTION_DDOT = 0

CCSDS_OMM_VERS = 2.0
CREATION_DATE  = 
ORIGINATOR     = 

OBJECT_NAME    = HXMT (HUIYAN)
OBJECT_ID      = 2017-034A
CENTER_NAME    = EARTH
REF_FRAME      = TEME
TIME_SYSTEM    = UTC
MEAN_ELEMENT_THEORY = SGP/SGP4

EPOCH          = 2025-11-19T12:49:17.915232
MEAN_MOTION    = 15.15928830
ECCENTRICITY   = .00341544
INCLINATION    = 43.0151
RA_OF_ASC_NODE = 268.3708
ARG_OF_PERICENTER = 258.9607
MEAN_ANOMALY   = 100.7399

EPHEMERIS_TYPE = 0
CLASSIFICATION_TYPE = U
NORAD_CAT_ID   = 42758
ELEMENT_SET_NO = 999
REV_AT_EPOCH   = 46581
BSTAR          = .48360848E-3
MEAN_MOTION_DOT = .935E-4
MEAN_MOTION_DDOT = 0

CCSDS_OMM_VERS = 2.0
CREATION_DATE  = 
ORIGINATOR     = 

OBJECT_NAME    = CZ-2C R/B
OBJECT_ID      = 2018-054D
CENTER_NAME    = EARTH
REF_FRAME      = TEME
TIME_SYSTEM    = UTC
MEAN_ELEMENT_THEORY = SGP/SGP4

EPOCH          = 2025-11-19T11:34:45.901344
MEAN_MOTION    = 15.69022195
ECCENTRICITY   = .00227054
INCLINATION    = 35.1359
RA_OF_ASC_NODE = 337.9826
ARG_OF_PERICENTER = 272.6371
MEAN_ANOMALY   = 87.1761

EPHEMERIS_TYPE = 0
CLASSIFICATION_TYPE = U
NORAD_CAT_ID   = 43521
ELEMENT_SET_NO = 999
REV_AT_EPOCH   = 41139
BSTAR          = .77414719E-3
MEAN_MOTION_DOT = .95068E-3
MEAN_MOTION_DDOT = 0

CCSDS_OMM_VERS = 2.0
CREATION_DATE  = 
ORIGINATOR     = 

OBJECT_NAME    = SAOCOM 1A
OBJECT_ID      = 2018-076A
CENTER_NAME    = EARTH
REF_FRAME      = TEME
TIME_SYSTEM    = UTC
MEAN_ELEMENT_THEORY = SGP/SGP4

EPOCH          = 2025-11-19T13:59:53.320992
MEAN_MOTION    = 14.82141271
ECCENTRICITY   = .00015568
INCLINATION    = 97.8852
RA_OF_ASC_NODE = 148.3418
ARG_OF_PERICENTER = 92.1664
MEAN_ANOMALY   = 267.9728

EPHEMERIS_TYPE = 0
CLASSIFICATION_TYPE = U
NORAD_CAT_ID   = 43641
ELEMENT_SET_NO = 999
REV_AT_EPOCH   = 38505
BSTAR          = .93241515E-4
MEAN_MOTION_DOT = .69E-5
MEAN_MOTION_DDOT = 0

CCSDS_OMM_VERS = 2.0
CREATION_DATE  = 
ORIGINATOR     = 

OBJECT_NAME    = H-2A R/B
OBJECT_ID      = 2018-084L
CENTER_NAME    = EARTH
REF_FRAME      = TEME
TIME_SYSTEM    = UTC
MEAN_ELEMENT_THEORY = SGP/SGP4

EPOCH          = 2025-11-19T10:44:43.114272
MEAN_MOTION    = 15.36277558
ECCENTRICITY   = .00289838
INCLINATION    = 98.8787
RA_OF_ASC_NODE = 152.7210
ARG_OF_PERICENTER = 45.5722
MEAN_ANOMALY   = 314.7882

EPHEMERIS_TYPE = 0
CLASSIFICATION_TYPE = U
NORAD_CAT_ID   = 43682
ELEMENT_SET_NO = 999
REV_AT_EPOCH   = 38882
BSTAR          = .50887755E-3
MEAN_MOTION_DOT = .18164E-3
MEAN_MOTION_DDOT = 0

CCSDS_OMM_VERS = 2.0
CREATION_DATE  = 
ORIGINATOR     = 

OBJECT_NAME    = SAOCOM 1B
OBJECT_ID      = 2020-059A
CENTER_NAME    = EARTH
REF_FRAME      = TEME
TIME_SYSTEM    = UTC
MEAN_ELEMENT_THEORY = SGP/SGP4

EPOCH          = 2025-11-19T14:44:57.149376
MEAN_MOTION    = 14.82149289
ECCENTRICITY   = .00013349
INCLINATION    = 97.8849
RA_OF_ASC_NODE = 147.4744
ARG_OF_PERICENTER = 89.3845
MEAN_ANOMALY   = 270.7521

EPHEMERIS_TYPE = 0
CLASSIFICATION_TYPE = U
NORAD_CAT_ID   = 46265
ELEMENT_SET_NO = 999
REV_AT_EPOCH   = 28244
BSTAR          = .34739741E-4
MEAN_MOTION_DOT = .224E-5
MEAN_MOTION_DDOT = 0

CCSDS_OMM_VERS = 2.0
CREATION_DATE  = 
ORIGINATOR     = 

OBJECT_NAME    = CSS (TIANHE)
OBJECT_ID      = 2021-035A
CENTER_NAME    = EARTH
REF_FRAME      = TEME
TIME_SYSTEM    = UTC
MEAN_ELEMENT_THEORY = SGP/SGP4

EPOCH          = 2025-11-19T14:02:35.222496
MEAN_MOTION    = 15.59311572
ECCENTRICITY   = .00073396
INCLINATION    = 41.4651
RA_OF_ASC_NODE = 157.1900
ARG_OF_PERICENTER = 196.7661
MEAN_ANOMALY   = 163.2936

EPHEMERIS_TYPE = 0
CLASSIFICATION_TYPE = U
NORAD_CAT_ID   = 48274
ELEMENT_SET_NO = 999
REV_AT_EPOCH   = 26041
BSTAR          = .24002222E-3
MEAN_MOTION_DOT = .19179E-3
MEAN_MOTION_DDOT = 0

